{
"type": "FeatureCollection",
"name": "redhook-w-path",
"crs": { "type": "name", "properties": { "name": "urn:ogc:def:crs:OGC:1.3:CRS84" } },
"features": [
{ "type": "Feature", "properties": { "id": 1 }, "geometry": { "type": "MultiLineString", "coordinates": [ [ [ -74.005976081857909, 40.674117858708883 ], [ -74.009539490383929, 40.67511846059751 ], [ -74.009651892605447, 40.67512862790911 ], [ -74.009951406343674, 40.675298827031945 ], [ -74.01261769312444, 40.677117133212171 ], [ -74.012773085804213, 40.677341370421921 ], [ -74.012675937930283, 40.67755916129596 ], [ -74.01207555733869, 40.678077260781038 ], [ -74.009798385372733, 40.680008825899165 ], [ -74.007543509012109, 40.681911050140791 ], [ -74.007235496237158, 40.681932379760106 ], [ -74.006856223309214, 40.681844416564481 ], [ -74.00590871754693, 40.68119528897823 ], [ -74.005410144113142, 40.681016044003869 ], [ -74.004970882653481, 40.681097049986263 ], [ -74.004424516504159, 40.681521630866698 ], [ -74.004150461566553, 40.682039403340212 ], [ -74.002295371703738, 40.685873615319082 ], [ -74.001404719322466, 40.687787268202285 ] ] ] } }
]
}
