{
"type": "FeatureCollection",
"name": "secondavenue-path",
"crs": { "type": "name", "properties": { "name": "urn:ogc:def:crs:OGC:1.3:CRS84" } },
"features": [
{ "type": "Feature", "properties": { "id": 1 }, "geometry": { "type": "MultiLineString", "coordinates": [ [ [ -74.008984012151998, 40.704134034064097 ], [ -74.006742800247054, 40.705631708588477 ], [ -74.00499362443081, 40.706812886339293 ], [ -74.004030754524578, 40.707367269289215 ], [ -74.002999143340801, 40.708442877757555 ], [ -74.001744536854773, 40.709464784887651 ], [ -74.001353670615288, 40.709859663234937 ], [ -74.000606367648473, 40.710908415805143 ], [ -73.99875550019874, 40.712806055775673 ], [ -73.998037960449068, 40.713731189326374 ], [ -73.997172072782959, 40.714606026326429 ], [ -73.996204507849498, 40.715724179914609 ], [ -73.995087648144349, 40.7168355226976 ], [ -73.99398452309849, 40.71796261345029 ], [ -73.993849255944113, 40.718157086743261 ], [ -73.991913482696674, 40.721914892970432 ], [ -73.991256826941353, 40.723773808399258 ], [ -73.990508430640276, 40.72477308663715 ], [ -73.984939595789783, 40.732403556140277 ], [ -73.980883582099253, 40.737895747982414 ], [ -73.97582605264914, 40.744870650988844 ], [ -73.972207390119266, 40.749821728633883 ], [ -73.96619931039767, 40.758076274477297 ], [ -73.958334721343846, 40.768832696966726 ], [ -73.95178557300477, 40.777862080679306 ], [ -73.947140512253299, 40.784291855571233 ], [ -73.942440512864692, 40.790658010909688 ], [ -73.937759822036753, 40.797031995152693 ], [ -73.934550641160811, 40.801476062387692 ], [ -73.934267758485078, 40.802083236112907 ], [ -73.934278291639473, 40.802643246129342 ], [ -73.934548104069847, 40.803082711714502 ], [ -73.934984733352152, 40.803370970328011 ], [ -73.936613719867296, 40.804053649847141 ], [ -73.938947468844802, 40.805044316999918 ] ] ] } }
]
}
