{
"type": "FeatureCollection",
"name": "flatlands_3_stations",
"crs": { "type": "name", "properties": { "name": "urn:ogc:def:crs:OGC:1.3:CRS84" } },
"features": [
{ "type": "Feature", "properties": { "fid": 1, "ID": 1, "station_name": "Linden Boulevard" }, "geometry": { "type": "Point", "coordinates": [ -73.878900531064858, 40.663799281396535 ] } },
{ "type": "Feature", "properties": { "fid": 2, "ID": 2, "station_name": "Flatlands Ave" }, "geometry": { "type": "Point", "coordinates": [ -73.874533437319712, 40.657791696698382 ] } },
{ "type": "Feature", "properties": { "fid": 3, "ID": 3, "station_name": "New Lots Av" }, "geometry": { "type": "Point", "coordinates": [ -73.884117788421463, 40.666250735077199 ] } }
]
}
